TDRS 3                  
1 19548U 88091B   20125.37840542 -.00000309  00000-0  00000+0 0  9998
2 19548  14.1998 357.8150 0037968 325.6761 346.3881  1.00278925102957
HST                     
1 20580U 90037B   20125.59423472  .00000436  00000-0  15556-4 0  9999
2 20580  28.4692 249.7522 0002693 344.1840 137.9582 15.09380936449335
TDRS 5                  
1 21639U 91054B   20125.43773000  .00000076  00000-0  00000+0 0  9996
2 21639  14.3051  11.1005 0029512   6.6852 194.8997  1.00269825105298
TDRS 6                  
1 22314U 93003B   20125.37766462 -.00000302  00000-0  00000+0 0  9993
2 22314  14.0290  14.2306 0008595  55.8183 242.7270  1.00277471 99969
TDRS 7                  
1 23613U 95035B   20125.57855421 -.00000211  00000-0  00000-0 0  9999
2 23613  14.2063   4.9200 0032875  27.6083 123.5330  1.00272738 90847
ISS (ZARYA)             
1 25544U 98067A   20125.70112759  .00000857  00000-0  23422-4 0  9999
2 25544  51.6442 203.6971 0001138 234.0065 260.8716 15.49346924225270
LANDSAT 7               
1 25682U 99020A   20125.87857983  .00000012  00000-0  12333-4 0  9997
2 25682  98.0845 189.8312 0001400  68.7549 291.3794 14.57176041119894
TERRA                   
1 25994U 99068A   20125.83999709 -.00000828  00000-0 -17368-3 0  9993
2 25994  98.2138 200.7274 0001326  99.3862 260.7518 14.57107542 83964
TDRS 8                  
1 26388U 00034A   20125.26993873 -.00000238  00000-0  00000+0 0  9994
2 26388   9.1652  47.8494 0019554 320.6311  40.4258  1.00277950 72764
TIMED                   
1 26998U 01055B   20125.43307256  .00000104  00000-0  15370-4 0  9990
2 26998  74.0741  20.8297 0000644 199.1534 160.9623 14.88187212998008
TDRS 9                  
1 27389U 02011A   20125.50838368 -.00000290  00000-0  00000-0 0  9996
2 27389   7.4028  67.8259 0025868 284.7096 350.7322  1.00263007 68032
AQUA                    
1 27424U 02022A   20125.61374146  .00000072  00000-0  25999-4 0  9994
2 27424  98.2066  66.8816 0002669 102.1707  49.1902 14.57119853957480
TDRS 10                 
1 27566U 02055A   20125.71857958  .00000085  00000-0  00000+0 0  9990
2 27566   6.8332  53.8250 0009498 309.3897 307.3477  1.00274477 63824
SORCE                   
1 27651U 03004A   20125.57962240  .00000022  00000-0  16547-4 0  9994
2 27651  39.9948 214.6982 0022052  68.9911 291.3235 14.89108579937659
AURA                    
1 28376U 04026A   20125.59041228  .00000071  00000-0  25872-4 0  9995
2 28376  98.2059  69.0149 0001595  82.7415 277.3965 14.57110986840538
SWIFT                   
1 28485U 04047A   20124.94982265  .00000866  00000-0  28714-4 0  9992
2 28485  20.5574 336.4257 0011022 213.8071 146.1660 15.04602724846766
THEMIS A                
1 30580U 07004A   20125.26075617 -.00000523  00000-0  00000+0 0  9991
2 30580  14.0908  50.6642 8415122  21.9874 358.4272  0.87838088 46312
THEMIS D                
1 30797U 07004D   20125.28002969 -.00000556  00000-0 -14827-1 0  9994
2 30797  12.6633  30.7274 8373798  43.6279 357.1347  0.87904972 21445
THEMIS E                
1 30798U 07004E   20125.31647131 -.00000492  00000-0  00000+0 0  9999
2 30798  11.6302  41.3139 8374485  35.7346 357.5977  0.87844194 46277
AIM                     
1 31304U 07015A   20125.54101447  .00000704  00000-0  43253-4 0  9992
2 31304  97.9129   6.6711 0006009 135.8724 224.2987 15.13545566714047
FGRST (GLAST)           
1 33053U 08029A   20125.13836231  .00000483  00000-0  10826-4 0  9996
2 33053  25.5834  42.1538 0012242 212.7918 147.1857 15.11332840656601
WISE                    
1 36119U 09071A   20125.19697988  .00000757  00000-0  28573-4 0  9992
2 36119  97.3328 162.0427 0003077 147.4995 212.6436 15.30055238577052
TDRS 11                 
1 39070U 13004A   20125.64074387  .00000064  00000-0  00000-0 0  9996
2 39070   3.8971 331.9579 0005970  42.6155 264.6502  1.00274292 26572
TDRS 12                 
1 39504U 14004A   20125.47185354 -.00000286  00000-0  00000-0 0  9994
2 39504   4.7112 338.1792 0001525  99.6481 273.6863  1.00279920 21874
GPM-CORE                
1 39574U 14009C   20125.56202522  .00002453  00000-0  39300-4 0  9999
2 39574  65.0057 300.9017 0011320 285.4121  74.5774 15.55977235351230
MMS 1                   
1 40482U 15011A   20122.67361111  .00000137  00000-0  00000+0 0  9999
2 40482  26.9566 120.2244 8681118  20.1149 305.8624  0.28565577 11082
MMS 2                   
1 40483U 15011B   20122.67361111  .00000137  00000-0  00000+0 0  9990
2 40483  26.9539 120.2247 8678975  20.1150 305.8615  0.28564963 11050
MMS 3                   
1 40484U 15011C   20122.67361111  .00000137  00000-0  00000+0 0  9991
2 40484  26.9551 120.2005 8679971  20.1444 305.8457  0.28559237 11052
MMS 4                   
1 40485U 15011D   20122.67361111  .00000137  00000-0  00000+0 0  9992
2 40485  26.9546 120.2342 8680123  20.1183 305.8274  0.28565547 11061
TDRS 13                 
1 42915U 17047A   20125.40603462 -.00000117  00000-0  00000+0 0  9994
2 42915   5.6438 330.2084 0017574  89.3616 297.9979  1.00271809  9971
JPSS-1                  
1 43013U 17073A   20125.79621981 -.00000016  00000-0  13165-4 0  9990
2 43013  98.7154  64.4256 0001532  92.3044 267.8308 14.19552893127468
